{
  "type": "FeatureCollection",
  "features": [
    {
      "type": "Feature",
      "properties": {
        "norad_id": 35895,
        "name": "COSMOS 2251 DEB",
        "group": "cosmos-2251-debris",
        "lat": 59.271842751781165,
        "lon": 155.97240697313813,
        "alt_km": 740.141341891801,
        "timestamp": "2025-12-02T21:34:01.667588+00:00",
        "meta_object_name": "COSMOS 2251 DEB",
        "meta_object_id": "1993-036AUJ",
        "meta_epoch": "2025-11-28T10:48:22.739616",
        "meta_mean_motion": 14.01419981,
        "meta_eccentricity": 0.01996382,
        "meta_inclination": 74.0486,
        "meta_ra_of_asc_node": 12.4453,
        "meta_arg_of_pericenter": 114.4344,
        "meta_mean_anomaly": 247.7763,
        "meta_ephemeris_type": 0,
        "meta_classification_type": "U",
        "meta_norad_cat_id": 35895,
        "meta_element_set_no": 999,
        "meta_rev_at_epoch": 58812,
        "meta_bstar": 0.0013219318,
        "meta_mean_motion_dot": 2.352e-05,
        "meta_mean_motion_ddot": 0,
        "tle_line1": "1 35895U 93036AUJ 25332.45026319  .00002352  00000+0  13219-2 0  9995",
        "tle_line2": "2 35895  74.0486  12.4453 0199638 114.4344 247.7763 14.01419981588125"
      },
      "geometry": {
        "type": "Point",
        "coordinates": [
          155.97240697313813,
          59.271842751781165
        ]
      }
    },
    {
      "type": "Feature",
      "properties": {
        "norad_id": 35898,
        "name": "COSMOS 2251 DEB",
        "group": "cosmos-2251-debris",
        "lat": -67.60553304017567,
        "lon": -86.82222995227562,
        "alt_km": 646.10991030264,
        "timestamp": "2025-12-02T21:34:01.667598+00:00",
        "meta_object_name": "COSMOS 2251 DEB",
        "meta_object_id": "1993-036AUM",
        "meta_epoch": "2025-12-01T05:48:44.726112",
        "meta_mean_motion": 14.94426348,
        "meta_eccentricity": 0.0079293,
        "meta_inclination": 73.9911,
        "meta_ra_of_asc_node": 320.6917,
        "meta_arg_of_pericenter": 107.3965,
        "meta_mean_anomaly": 270.638,
        "meta_ephemeris_type": 0,
        "meta_classification_type": "U",
        "meta_norad_cat_id": 35898,
        "meta_element_set_no": 999,
        "meta_rev_at_epoch": 66638,
        "meta_bstar": 0.00081015,
        "meta_mean_motion_dot": 9.266e-05,
        "meta_mean_motion_ddot": 0,
        "tle_line1": "1 35898U 93036AUM 25335.24218433  .00009266  00000+0  81015-3 0  9999",
        "tle_line2": "2 35898  73.9911 320.6917 0079293 107.3965 270.6380 14.94426348666384"
      },
      "geometry": {
        "type": "Point",
        "coordinates": [
          -86.82222995227562,
          -67.60553304017567
        ]
      }
    },
    {
      "type": "Feature",
      "properties": {
        "norad_id": 35901,
        "name": "COSMOS 2251 DEB",
        "group": "cosmos-2251-debris",
        "lat": -50.036693928563714,
        "lon": -116.89581613499966,
        "alt_km": 559.3284984381489,
        "timestamp": "2025-12-02T21:34:01.667608+00:00",
        "meta_object_name": "COSMOS 2251 DEB",
        "meta_object_id": "1993-036AUQ",
        "meta_epoch": "2025-12-01T12:55:02.152704",
        "meta_mean_motion": 15.05425838,
        "meta_eccentricity": 0.00058343,
        "meta_inclination": 74.0116,
        "meta_ra_of_asc_node": 45.8877,
        "meta_arg_of_pericenter": 13.0645,
        "meta_mean_anomaly": 49.8256,
        "meta_ephemeris_type": 0,
        "meta_classification_type": "U",
        "meta_norad_cat_id": 35901,
        "meta_element_set_no": 999,
        "meta_rev_at_epoch": 85958,
        "meta_bstar": 0.0032773073,
        "meta_mean_motion_dot": 0.00047347,
        "meta_mean_motion_ddot": 0,
        "tle_line1": "1 35901U 93036AUQ 25335.53821936  .00047347  00000+0  32773-2 0  9992",
        "tle_line2": "2 35901  74.0116  45.8877 0005834  13.0645  49.8256 15.05425838859587"
      },
      "geometry": {
        "type": "Point",
        "coordinates": [
          -116.89581613499966,
          -50.036693928563714
        ]
      }
    },
    {
      "type": "Feature",
      "properties": {
        "norad_id": 35902,
        "name": "COSMOS 2251 DEB",
        "group": "cosmos-2251-debris",
        "lat": 73.53208845055877,
        "lon": -3.8935476110203417,
        "alt_km": 787.6995847078069,
        "timestamp": "2025-12-02T21:34:01.667619+00:00",
        "meta_object_name": "COSMOS 2251 DEB",
        "meta_object_id": "1993-036AUR",
        "meta_epoch": "2025-12-01T03:04:00.207552",
        "meta_mean_motion": 14.26791124,
        "meta_eccentricity": 0.01016301,
        "meta_inclination": 73.9836,
        "meta_ra_of_asc_node": 255.6555,
        "meta_arg_of_pericenter": 12.6385,
        "meta_mean_anomaly": 347.7274,
        "meta_ephemeris_type": 0,
        "meta_classification_type": "U",
        "meta_norad_cat_id": 35902,
        "meta_element_set_no": 999,
        "meta_rev_at_epoch": 60964,
        "meta_bstar": 0.0014097892,
        "meta_mean_motion_dot": 3.584e-05,
        "meta_mean_motion_ddot": 0,
        "tle_line1": "1 35902U 93036AUR 25335.12778018  .00003584  00000+0  14098-2 0  9995",
        "tle_line2": "2 35902  73.9836 255.6555 0101630  12.6385 347.7274 14.26791124609642"
      },
      "geometry": {
        "type": "Point",
        "coordinates": [
          -3.8935476110203417,
          73.53208845055877
        ]
      }
    },
    {
      "type": "Feature",
      "properties": {
        "norad_id": 35905,
        "name": "COSMOS 2251 DEB",
        "group": "cosmos-2251-debris",
        "lat": 15.474349709302619,
        "lon": -124.66643144627749,
        "alt_km": 542.0136543538638,
        "timestamp": "2025-12-02T21:34:01.667629+00:00",
        "meta_object_name": "COSMOS 2251 DEB",
        "meta_object_id": "1993-036AUU",
        "meta_epoch": "2025-12-02T02:16:20.919648",
        "meta_mean_motion": 14.98770936,
        "meta_eccentricity": 0.00910827,
        "meta_inclination": 74.0327,
        "meta_ra_of_asc_node": 232.4178,
        "meta_arg_of_pericenter": 314.9796,
        "meta_mean_anomaly": 44.4031,
        "meta_ephemeris_type": 0,
        "meta_classification_type": "U",
        "meta_norad_cat_id": 35905,
        "meta_element_set_no": 999,
        "meta_rev_at_epoch": 88423,
        "meta_bstar": 0.00066760641,
        "meta_mean_motion_dot": 8.736e-05,
        "meta_mean_motion_ddot": 0,
        "tle_line1": "1 35905U 93036AUU 25336.09468657  .00008736  00000+0  66761-3 0  9999",
        "tle_line2": "2 35905  74.0327 232.4178 0091082 314.9796  44.4031 14.98770936884238"
      },
      "geometry": {
        "type": "Point",
        "coordinates": [
          -124.66643144627749,
          15.474349709302619
        ]
      }
    },
    {
      "type": "Feature",
      "properties": {
        "norad_id": 35959,
        "name": "COSMOS 2251 DEB",
        "group": "cosmos-2251-debris",
        "lat": -71.25609870235334,
        "lon": -87.45824166815164,
        "alt_km": 795.4094281328571,
        "timestamp": "2025-12-02T21:34:01.667639+00:00",
        "meta_object_name": "COSMOS 2251 DEB",
        "meta_object_id": "1993-036AUZ",
        "meta_epoch": "2025-11-30T16:21:59.984064",
        "meta_mean_motion": 14.34121846,
        "meta_eccentricity": 0.00211433,
        "meta_inclination": 74.0322,
        "meta_ra_of_asc_node": 334.1387,
        "meta_arg_of_pericenter": 58.5028,
        "meta_mean_anomaly": 301.8186,
        "meta_ephemeris_type": 0,
        "meta_classification_type": "U",
        "meta_norad_cat_id": 35959,
        "meta_element_set_no": 999,
        "meta_rev_at_epoch": 84755,
        "meta_bstar": 0.00012517594,
        "meta_mean_motion_dot": 3.25e-06,
        "meta_mean_motion_ddot": 0,
        "tle_line1": "1 35959U 93036AUZ 25334.68194426  .00000325  00000+0  12518-3 0  9998",
        "tle_line2": "2 35959  74.0322 334.1387 0021143  58.5028 301.8186 14.34121846847559"
      },
      "geometry": {
        "type": "Point",
        "coordinates": [
          -87.45824166815164,
          -71.25609870235334
        ]
      }
    },
    {
      "type": "Feature",
      "properties": {
        "norad_id": 35961,
        "name": "COSMOS 2251 DEB",
        "group": "cosmos-2251-debris",
        "lat": 29.290129151500523,
        "lon": 32.17914799170426,
        "alt_km": 735.2231474163837,
        "timestamp": "2025-12-02T21:34:01.667649+00:00",
        "meta_object_name": "COSMOS 2251 DEB",
        "meta_object_id": "1993-036AVB",
        "meta_epoch": "2025-11-29T09:08:47.173056",
        "meta_mean_motion": 14.05319505,
        "meta_eccentricity": 0.01924432,
        "meta_inclination": 73.9254,
        "meta_ra_of_asc_node": 227.671,
        "meta_arg_of_pericenter": 163.9834,
        "meta_mean_anomaly": 196.7506,
        "meta_ephemeris_type": 0,
        "meta_classification_type": "U",
        "meta_norad_cat_id": 35961,
        "meta_element_set_no": 999,
        "meta_rev_at_epoch": 62494,
        "meta_bstar": 0.00062484461,
        "meta_mean_motion_dot": 1.171e-05,
        "meta_mean_motion_ddot": 0,
        "tle_line1": "1 35961U 93036AVB 25333.38110154  .00001171  00000+0  62484-3 0  9990",
        "tle_line2": "2 35961  73.9254 227.6710 0192443 163.9834 196.7506 14.05319505624940"
      },
      "geometry": {
        "type": "Point",
        "coordinates": [
          32.17914799170426,
          29.290129151500523
        ]
      }
    }
  ]
}